$$SOE
2461295.500000000, A.D. 2026-Sep-12 00:00:00.0000, 4.519181565584183E+08, 2.238795117550560E+08, -1.191949416849415E+07,
2461302.500000000, A.D. 2026-Sep-19 00:00:00.0000, 4.473751715314268E+08, 2.327752978538216E+08, -1.085976033506046E+07,
2461309.500000000, A.D. 2026-Sep-26 00:00:00.0000, 4.426629879993644E+08, 2.415830113500602E+08, -9.795919207075894E+06,
2461316.500000000, A.D. 2026-Oct-03 00:00:00.0000, 4.377833492108380E+08, 2.502992982831024E+08, -8.728372274063587E+06,
2461323.500000000, A.D. 2026-Oct-10 00:00:00.0000, 4.327380721036834E+08, 2.589208428029768E+08, -7.657522819457904E+06,
2461330.500000000, A.D. 2026-Oct-17 00:00:00.0000, 4.275290463136082E+08, 2.674443690682176E+08, -6.583775696858689E+06,
2461337.500000000, A.D. 2026-Oct-24 00:00:00.0000, 4.221582331186259E+08, 2.758666430177199E+08, -5.507537112538561E+06,
2461344.500000000, A.D. 2026-Oct-31 00:00:00.0000, 4.166276644181632E+08, 2.841844739471104E+08, -4.429214428835720E+06,
2461351.500000000, A.D. 2026-Nov-07 00:00:00.0000, 4.109394420858403E+08, 2.923947159613284E+08, -3.349216013600156E+06,
2461358.500000000, A.D. 2026-Nov-14 00:00:00.0000, 4.050957378967000E+08, 3.004942701887053E+08, -2.267951081742465E+06,
2461365.500000000, A.D. 2026-Nov-21 00:00:00.0000, 3.990987922164782E+08, 3.084800884370425E+08, -1.185829307012796E+06,
2461372.500000000, A.D. 2026-Nov-28 00:00:00.0000, 3.929509104561282E+08, 3.163491752846317E+08, -1.032603581045568E+05,
2461379.500000000, A.D. 2026-Dec-05 00:00:00.0000, 3.866544609157039E+08, 3.240985879502405E+08, 9.793462553375214E+05,
2461386.500000000, A.D. 2026-Dec-12 00:00:00.0000, 3.802118741857417E+08, 3.317254370507773E+08, 2.061581265842006E+06,
2461393.500000000, A.D. 2026-Dec-19 00:00:00.0000, 3.736256422206175E+08, 3.392268882508221E+08, 3.143035834009841E+06,
2461400.500000000, A.D. 2026-Dec-26 00:00:00.0000, 3.668983169432929E+08, 3.466001639341657E+08, 4.223301779328510E+06,
2461407.500000000, A.D. 2027-Jan-02 00:00:00.0000, 3.600325086588521E+08, 3.538425447045794E+08, 5.301971814951986E+06,
2461414.500000000, A.D. 2027-Jan-09 00:00:00.0000, 3.530308843948160E+08, 3.609513707341329E+08, 6.378639777265951E+06,
2461421.500000000, A.D. 2027-Jan-16 00:00:00.0000, 3.458961662040960E+08, 3.679240429661676E+08, 7.452900847568572E+06,
2461428.500000000, A.D. 2027-Jan-23 00:00:00.0000, 3.386311294767710E+08, 3.747580241318249E+08, 8.524351758217782E+06,
2461435.500000000, A.D. 2027-Jan-30 00:00:00.0000, 3.312386014486019E+08, 3.814508395312123E+08, 9.592590961886108E+06,
2461442.500000000, A.D. 2027-Feb-06 00:00:00.0000, 3.237214603316184E+08, 3.880000779182863E+08, 1.065721875244001E+07,
2461449.500000000, A.D. 2027-Feb-13 00:00:00.0000, 3.160826346071448E+08, 3.944033937073733E+08, 1.171783747889215E+07,
2461456.500000000, A.D. 2027-Feb-20 00:00:00.0000, 3.083251001167209E+08, 4.006585097081814E+08, 1.277405200416794E+07,
2461463.500000000, A.D. 2027-Feb-27 00:00:00.0000, 3.004518763470834E+08, 4.067632171761429E+08, 1.382547001782012E+07,
2461470.500000000, A.D. 2027-Mar-06 00:00:00.0000, 2.924660249303290E+08, 4.127153751012125E+08, 1.487170208260563E+07,
2461477.500000000, A.D. 2027-Mar-13 00:00:00.0000, 2.843706487611495E+08, 4.185129107831030E+08, 1.591236172866955E+07,
2461484.500000000, A.D. 2027-Mar-20 00:00:00.0000, 2.761688906030584E+08, 4.241538208573185E+08, 1.694706563033471E+07,
2461491.500000000, A.D. 2027-Mar-27 00:00:00.0000, 2.678639313874384E+08, 4.296361722227517E+08, 1.797543380181628E+07,
2461498.500000000, A.D. 2027-Apr-03 00:00:00.0000, 2.594589884103989E+08, 4.349581028229465E+08, 1.899708978908423E+07,
2461505.500000000, A.D. 2027-Apr-10 00:00:00.0000, 2.509573134908085E+08, 4.401178223039573E+08, 2.001166085390937E+07,
2461512.500000000, A.D. 2027-Apr-17 00:00:00.0000, 2.423621911136491E+08, 4.451136125344240E+08, 2.101877814670470E+07,
2461519.500000000, A.D. 2027-Apr-24 00:00:00.0000, 2.336769366399270E+08, 4.499438279257871E+08, 2.201807685566026E+07,
2461526.500000000, A.D. 2027-May-01 00:00:00.0000, 2.249048948848359E+08, 4.546068955808760E+08, 2.300919630685705E+07,
2461533.500000000, A.D. 2027-May-08 00:00:00.0000, 2.160494393740479E+08, 4.591013160199561E+08, 2.399178004822925E+07,
2461540.500000000, A.D. 2027-May-15 00:00:00.0000, 2.071139707838590E+08, 4.634256654373397E+08, 2.496547613237759E+07,
2461547.500000000, A.D. 2027-May-22 00:00:00.0000, 1.981019130022127E+08, 4.675785968959250E+08, 2.592993752975050E+07,
2461554.500000000, A.D. 2027-May-29 00:00:00.0000, 1.890167101676114E+08, 4.715588389933223E+08, 2.688482224461484E+07,
2461561.500000000, A.D. 2027-Jun-05 00:00:00.0000, 1.798618255740513E+08, 4.753651951333683E+08, 2.782979330866796E+07,
2461568.500000000, A.D. 2027-Jun-12 00:00:00.0000, 1.706407404370378E+08, 4.789965438348328E+08, 2.876451887164053E+07,
2461575.500000000, A.D. 2027-Jun-19 00:00:00.0000, 1.613569521915099E+08, 4.824518391424500E+08, 2.968867234290153E+07,
2461582.500000000, A.D. 2027-Jun-26 00:00:00.0000, 1.520139726031283E+08, 4.857301108793329E+08, 3.060193253716969E+07,
2461589.500000000, A.D. 2027-Jul-03 00:00:00.0000, 1.426153258270426E+08, 4.888304647491044E+08, 3.150398381295139E+07,
2461596.500000000, A.D. 2027-Jul-10 00:00:00.0000, 1.331645464524948E+08, 4.917520822962253E+08, 3.239451620107642E+07,
2461603.500000000, A.D. 2027-Jul-17 00:00:00.0000, 1.236651775705028E+08, 4.944942206856302E+08, 3.327322551691231E+07,
2461610.500000000, A.D. 2027-Jul-24 00:00:00.0000, 1.141207690215690E+08, 4.970562122396908E+08, 3.413981343698913E+07,
2461617.500000000, A.D. 2027-Jul-31 00:00:00.0000, 1.045348762355786E+08, 4.994374639700791E+08, 3.499398752190116E+07,
2461624.500000000, A.D. 2027-Aug-07 00:00:00.0000, 9.491105946495195E+07, 5.016374582591413E+08, 3.583546129838151E+07,
2461631.500000000, A.D. 2027-Aug-14 00:00:00.0000, 8.525288111262356E+07, 5.036557544389145E+08, 3.666395459101054E+07,
2461638.500000000, A.D. 2027-Aug-21 00:00:00.0000, 7.556390177421658E+07, 5.054919879035554E+08, 3.747919377194202E+07,
2461645.500000000, A.D. 2027-Aug-28 00:00:00.0000, 6.584767842629104E+07, 5.071458679608305E+08, 3.828091171248102E+07,
2461652.500000000, A.D. 2027-Sep-04 00:00:00.0000, 5.610776358193346E+07, 5.086171769272207E+08, 3.906884774922878E+07,
2461659.500000000, A.D. 2027-Sep-11 00:00:00.0000, 4.634770402010248E+07, 5.099057698056725E+08, 3.984274773839870E+07,
2461666.500000000, A.D. 2027-Sep-18 00:00:00.0000, 3.657103922278854E+07, 5.110115738964431E+08, 4.060236413267255E+07,
2461673.500000000, A.D. 2027-Sep-25 00:00:00.0000, 2.678129974964938E+07, 5.119345882646950E+08, 4.134745605301744E+07,
2461680.500000000, A.D. 2027-Oct-02 00:00:00.0000, 1.698200562602462E+07, 5.126748830939704E+08, 4.207778935060471E+07,
2461687.500000000, A.D. 2027-Oct-09 00:00:00.0000, 7.176664767668055E+06, 5.132325989227393E+08, 4.279313665619215E+07,
2461694.500000000, A.D. 2027-Oct-16 00:00:00.0000, -2.631228493781648E+06, 5.136079457108631E+08, 4.349327740652195E+07,
2461701.500000000, A.D. 2027-Oct-23 00:00:00.0000, -1.243819452397345E+07, 5.138012017320681E+08, 4.417799782332227E+07,
2461708.500000000, A.D. 2027-Oct-30 00:00:00.0000, -2.224076876233774E+07, 5.138127129048859E+08, 4.484709086040702E+07,
2461715.500000000, A.D. 2027-Nov-06 00:00:00.0000, -3.203550252432122E+07, 5.136428936927586E+08, 4.550035631780285E+07,
2461722.500000000, A.D. 2027-Nov-13 00:00:00.0000, -4.181896621319568E+07, 5.132922274981264E+08, 4.613760113520443E+07,
2461729.500000000, A.D. 2027-Nov-20 00:00:00.0000, -5.158775203960915E+07, 5.127612643645618E+08, 4.675863941997457E+07,
2461736.500000000, A.D. 2027-Nov-27 00:00:00.0000, -6.133847463188379E+07, 5.120506189541643E+08, 4.736329230393475E+07,
2461743.500000000, A.D. 2027-Dec-04 00:00:00.0000, -7.106777155954088E+07, 5.111609697168932E+08, 4.795138788941881E+07,
2461750.500000000, A.D. 2027-Dec-11 00:00:00.0000, -8.077230431964891E+07, 5.100930582890061E+08, 4.852276125638571E+07,
2461757.500000000, A.D. 2027-Dec-18 00:00:00.0000, -9.044875951057839E+07, 5.088476887825545E+08, 4.907725447779655E+07,
2461764.500000000, A.D. 2027-Dec-25 00:00:00.0000, -1.000938500408389E+08, 5.074257269650173E+08, 4.961471662929031E+07,
2461771.500000000, A.D. 2028-Jan-01 00:00:00.0000, -1.097043163312920E+08, 5.058280993448524E+08, 5.013500379069999E+07,
$$EOE